{
  "type": "FeatureCollection",
  "features": [
    {
      "type": "Feature",
      "properties": {
        "norad_id": 67004,
        "name": "STARLINK-35913",
        "group": "last-30-days",
        "lat": -69.95730002578514,
        "lon": -160.03250465672792,
        "alt_km": 322.86552404367103,
        "timestamp": "2025-12-23T09:49:05.799804+00:00",
        "meta_object_name": "STARLINK-35913",
        "meta_object_id": "2025-293B",
        "meta_epoch": "2025-12-22T22:00:03.000096",
        "meta_mean_motion": 15.86075126,
        "meta_eccentricity": 0.00037242,
        "meta_inclination": 69.9943,
        "meta_ra_of_asc_node": 294.2704,
        "meta_arg_of_pericenter": 262.9168,
        "meta_mean_anomaly": 77.0764,
        "meta_ephemeris_type": 0,
        "meta_classification_type": "U",
        "meta_norad_cat_id": 67004,
        "meta_element_set_no": 999,
        "meta_rev_at_epoch": 181,
        "meta_bstar": -0.007773591,
        "meta_mean_motion_dot": -0.01678394,
        "meta_mean_motion_ddot": 0,
        "tle_line1": "1 67004U 25293B   25356.91670139 -.01678394  00000+0 -77736-2 0  9996",
        "tle_line2": "2 67004  69.9943 294.2704 0003724 262.9168  77.0764 15.86075126  1819"
      },
      "geometry": {
        "type": "Point",
        "coordinates": [
          -160.03250465672792,
          -69.95730002578514
        ]
      }
    },
    {
      "type": "Feature",
      "properties": {
        "norad_id": 67005,
        "name": "STARLINK-36148",
        "group": "last-30-days",
        "lat": -69.93619407347333,
        "lon": -153.16325020175535,
        "alt_km": 322.86595251910694,
        "timestamp": "2025-12-23T09:49:05.799817+00:00",
        "meta_object_name": "STARLINK-36148",
        "meta_object_id": "2025-293C",
        "meta_epoch": "2025-12-22T22:00:03.000096",
        "meta_mean_motion": 15.86060424,
        "meta_eccentricity": 0.00037755,
        "meta_inclination": 69.9944,
        "meta_ra_of_asc_node": 294.2681,
        "meta_arg_of_pericenter": 264.5264,
        "meta_mean_anomaly": 77.8503,
        "meta_ephemeris_type": 0,
        "meta_classification_type": "U",
        "meta_norad_cat_id": 67005,
        "meta_element_set_no": 999,
        "meta_rev_at_epoch": 181,
        "meta_bstar": -0.007766243,
        "meta_mean_motion_dot": -0.01676027,
        "meta_mean_motion_ddot": 0,
        "tle_line1": "1 67005U 25293C   25356.91670139 -.01676027  00000+0 -77662-2 0  9996",
        "tle_line2": "2 67005  69.9944 294.2681 0003775 264.5264  77.8503 15.86060424  1810"
      },
      "geometry": {
        "type": "Point",
        "coordinates": [
          -153.16325020175535,
          -69.93619407347333
        ]
      }
    },
    {
      "type": "Feature",
      "properties": {
        "norad_id": 67006,
        "name": "STARLINK-36156",
        "group": "last-30-days",
        "lat": -68.90573231495667,
        "lon": -137.9795896358951,
        "alt_km": 322.9255335333619,
        "timestamp": "2025-12-23T09:49:05.799827+00:00",
        "meta_object_name": "STARLINK-36156",
        "meta_object_id": "2025-293D",
        "meta_epoch": "2025-12-22T22:00:03.000096",
        "meta_mean_motion": 15.86020364,
        "meta_eccentricity": 0.00039708,
        "meta_inclination": 69.9943,
        "meta_ra_of_asc_node": 294.2607,
        "meta_arg_of_pericenter": 263.0815,
        "meta_mean_anomaly": 84.8054,
        "meta_ephemeris_type": 0,
        "meta_classification_type": "U",
        "meta_norad_cat_id": 67006,
        "meta_element_set_no": 999,
        "meta_rev_at_epoch": 181,
        "meta_bstar": -0.0078252294,
        "meta_mean_motion_dot": -0.01684448,
        "meta_mean_motion_ddot": 0,
        "tle_line1": "1 67006U 25293D   25356.91670139 -.01684448  00000+0 -78252-2 0  9999",
        "tle_line2": "2 67006  69.9943 294.2607 0003970 263.0815  84.8054 15.86020364  1819"
      },
      "geometry": {
        "type": "Point",
        "coordinates": [
          -137.9795896358951,
          -68.90573231495667
        ]
      }
    },
    {
      "type": "Feature",
      "properties": {
        "norad_id": 67007,
        "name": "STARLINK-36123",
        "group": "last-30-days",
        "lat": -69.54247501088742,
        "lon": -144.76270318677146,
        "alt_km": 322.9279558203598,
        "timestamp": "2025-12-23T09:49:05.799837+00:00",
        "meta_object_name": "STARLINK-36123",
        "meta_object_id": "2025-293E",
        "meta_epoch": "2025-12-22T22:00:03.000096",
        "meta_mean_motion": 15.86034456,
        "meta_eccentricity": 0.00038822,
        "meta_inclination": 69.9942,
        "meta_ra_of_asc_node": 294.2637,
        "meta_arg_of_pericenter": 262.1052,
        "meta_mean_anomaly": 83.2613,
        "meta_ephemeris_type": 0,
        "meta_classification_type": "U",
        "meta_norad_cat_id": 67007,
        "meta_element_set_no": 999,
        "meta_rev_at_epoch": 181,
        "meta_bstar": -0.0078078888,
        "meta_mean_motion_dot": -0.01682104,
        "meta_mean_motion_ddot": 0,
        "tle_line1": "1 67007U 25293E   25356.91670139 -.01682104  00000+0 -78079-2 0  9994",
        "tle_line2": "2 67007  69.9942 294.2637 0003882 262.1052  83.2613 15.86034456  1818"
      },
      "geometry": {
        "type": "Point",
        "coordinates": [
          -144.76270318677146,
          -69.54247501088742
        ]
      }
    },
    {
      "type": "Feature",
      "properties": {
        "norad_id": 67008,
        "name": "STARLINK-36163",
        "group": "last-30-days",
        "lat": -67.74115564780566,
        "lon": -130.0566341280344,
        "alt_km": 322.91401023335493,
        "timestamp": "2025-12-23T09:49:05.799847+00:00",
        "meta_object_name": "STARLINK-36163",
        "meta_object_id": "2025-293F",
        "meta_epoch": "2025-12-22T22:00:03.000096",
        "meta_mean_motion": 15.85985004,
        "meta_eccentricity": 0.00040887,
        "meta_inclination": 69.9943,
        "meta_ra_of_asc_node": 294.2571,
        "meta_arg_of_pericenter": 268.492,
        "meta_mean_anomaly": 82.6175,
        "meta_ephemeris_type": 0,
        "meta_classification_type": "U",
        "meta_norad_cat_id": 67008,
        "meta_element_set_no": 999,
        "meta_rev_at_epoch": 181,
        "meta_bstar": -0.0078526476,
        "meta_mean_motion_dot": -0.0168718,
        "meta_mean_motion_ddot": 0,
        "tle_line1": "1 67008U 25293F   25356.91670139 -.01687180  00000+0 -78526-2 0  9991",
        "tle_line2": "2 67008  69.9943 294.2571 0004088 268.4920  82.6175 15.85985004  1818"
      },
      "geometry": {
        "type": "Point",
        "coordinates": [
          -130.0566341280344,
          -67.74115564780566
        ]
      }
    },
    {
      "type": "Feature",
      "properties": {
        "norad_id": 67009,
        "name": "STARLINK-36118",
        "group": "last-30-days",
        "lat": -66.49087278710883,
        "lon": -124.04719770972022,
        "alt_km": 323.06239244723656,
        "timestamp": "2025-12-23T09:49:05.799857+00:00",
        "meta_object_name": "STARLINK-36118",
        "meta_object_id": "2025-293G",
        "meta_epoch": "2025-12-22T22:00:03.000096",
        "meta_mean_motion": 15.85950537,
        "meta_eccentricity": 0.00039609,
        "meta_inclination": 69.9943,
        "meta_ra_of_asc_node": 294.254,
        "meta_arg_of_pericenter": 270.6747,
        "meta_mean_anomaly": 83.1438,
        "meta_ephemeris_type": 0,
        "meta_classification_type": "U",
        "meta_norad_cat_id": 67009,
        "meta_element_set_no": 999,
        "meta_rev_at_epoch": 175,
        "meta_bstar": -0.0078261729,
        "meta_mean_motion_dot": -0.01679608,
        "meta_mean_motion_ddot": 0,
        "tle_line1": "1 67009U 25293G   25356.91670139 -.01679608  00000+0 -78262-2 0  9995",
        "tle_line2": "2 67009  69.9943 294.2540 0003960 270.6747  83.1438 15.85950537  1759"
      },
      "geometry": {
        "type": "Point",
        "coordinates": [
          -124.04719770972022,
          -66.49087278710883
        ]
      }
    },
    {
      "type": "Feature",
      "properties": {
        "norad_id": 67010,
        "name": "STARLINK-36189",
        "group": "last-30-days",
        "lat": -63.717454669029905,
        "lon": -114.70917581042745,
        "alt_km": 323.35471555813183,
        "timestamp": "2025-12-23T09:49:05.799867+00:00",
        "meta_object_name": "STARLINK-36189",
        "meta_object_id": "2025-293H",
        "meta_epoch": "2025-12-22T22:00:03.000096",
        "meta_mean_motion": 15.85920606,
        "meta_eccentricity": 0.0003816,
        "meta_inclination": 69.9943,
        "meta_ra_of_asc_node": 294.2481,
        "meta_arg_of_pericenter": 265.2947,
        "meta_mean_anomaly": 93.387,
        "meta_ephemeris_type": 0,
        "meta_classification_type": "U",
        "meta_norad_cat_id": 67010,
        "meta_element_set_no": 999,
        "meta_rev_at_epoch": 181,
        "meta_bstar": -0.0078433967,
        "meta_mean_motion_dot": -0.01680496,
        "meta_mean_motion_ddot": 0,
        "tle_line1": "1 67010U 25293H   25356.91670139 -.01680496  00000+0 -78434-2 0  9995",
        "tle_line2": "2 67010  69.9943 294.2481 0003816 265.2947  93.3870 15.85920606  1811"
      },
      "geometry": {
        "type": "Point",
        "coordinates": [
          -114.70917581042745,
          -63.717454669029905
        ]
      }
    }
  ]
}